[{"OBJECT_NAME":"SDA_1678","OBJECT_ID":"2025-230Q","EPOCH":"2026-03-09T17:22:06.092832","MEAN_MOTION":13.85535702,"ECCENTRICITY":0.00045667,"INCLINATION":81.3007,"RA_OF_ASC_NODE":303.8258,"ARG_OF_PERICENTER":119.3929,"MEAN_ANOMALY":240.7685,"EPHEMERIS_TYPE":0,"CLASSIFICATION_TYPE":"U","NORAD_CAT_ID":65988,"ELEMENT_SET_NO":999,"REV_AT_EPOCH":2005,"BSTAR":0.00018640511,"MEAN_MOTION_DOT":2.25e-6,"MEAN_MOTION_DDOT":0},{"OBJECT_NAME":"CZ-6A DEB","OBJECT_ID":"2022-151GC","EPOCH":"2026-03-09T21:01:43.721472","MEAN_MOTION":13.89025497,"ECCENTRICITY":0.01494816,"INCLINATION":98.975,"RA_OF_ASC_NODE":41.3943,"ARG_OF_PERICENTER":354.9119,"MEAN_ANOMALY":5.0513,"EPHEMERIS_TYPE":0,"CLASSIFICATION_TYPE":"U","NORAD_CAT_ID":54452,"ELEMENT_SET_NO":999,"REV_AT_EPOCH":16826,"BSTAR":0.00021946252,"MEAN_MOTION_DOT":2.48e-6,"MEAN_MOTION_DDOT":0}]
